start=new Date('2021-10-11T00:00:00.000Z').valueOf();
sats=[{"NORAD_CAT_ID":"46767","MEAN_ELEMENT_THEORY":"SGP4","BSTAR":"0.00029891000000","APOAPSIS":"548.059","RA_OF_ASC_NODE":"8.9329","SITE":"AFETR","MEAN_MOTION_DOT":"0.00004172","SEMIMAJOR_AXIS":"6925.388","PERIAPSIS":"546.447","OBJECT_NAME":"STARLINK-1917","ARG_OF_PERICENTER":"101.4600","TIME_SYSTEM":"UTC","GP_ID":"186839739","LAUNCH_DATE":"2020-10-24","PERIOD":"95.593","MEAN_ANOMALY":"258.6520","OBJECT_ID":"2020-074AE","TLE_LINE1":"1 46767U 20074AE  21283.63339918  .00004172  00000-0  29891-3 0  9997","CLASSIFICATION_TYPE":"U","INCLINATION":"53.0547","COUNTRY_CODE":"US","RCS_SIZE":"LARGE","EPOCH":"2021-10-10T15:12:05.689152","ECCENTRICITY":"0.00011640","EPHEMERIS_TYPE":"0","OBJECT_TYPE":"PAYLOAD","CENTER_NAME":"EARTH","MEAN_MOTION":"15.06387215","REF_FRAME":"TEME","MEAN_MOTION_DDOT":"0.0000000000000","ELEMENT_SET_NO":"999","FILE":"3155694","DECAY_DATE":null,"REV_AT_EPOCH":"5364","TLE_LINE2":"2 46767  53.0547   8.9329 0001164 101.4600 258.6520 15.06387215 53645"},{"COUNTRY_CODE":"US","INCLINATION":"53.0567","CLASSIFICATION_TYPE":"U","EPHEMERIS_TYPE":"0","ECCENTRICITY":"0.00013460","RCS_SIZE":"LARGE","EPOCH":"2021-10-10T15:17:27.789216","MEAN_MOTION_DDOT":"0.0000000000000","ELEMENT_SET_NO":"999","REF_FRAME":"TEME","MEAN_MOTION":"15.06394449","CENTER_NAME":"EARTH","OBJECT_TYPE":"PAYLOAD","TLE_LINE2":"2 46768  53.0567   8.9117 0001346 105.6063 254.5075 15.06394449 53641","REV_AT_EPOCH":"5364","FILE":"3155694","DECAY_DATE":null,"BSTAR":"0.00057808000000","APOAPSIS":"548.163","MEAN_ELEMENT_THEORY":"SGP4","NORAD_CAT_ID":"46768","PERIAPSIS":"546.298","SITE":"AFETR","MEAN_MOTION_DOT":"0.00008338","SEMIMAJOR_AXIS":"6925.366","RA_OF_ASC_NODE":"8.9117","LAUNCH_DATE":"2020-10-24","GP_ID":"186840990","ARG_OF_PERICENTER":"105.6063","TIME_SYSTEM":"UTC","OBJECT_NAME":"STARLINK-1918","OBJECT_ID":"2020-074AF","TLE_LINE1":"1 46768U 20074AF  21283.63712719  .00008338  00000-0  57808-3 0  9999","PERIOD":"95.592","MEAN_ANOMALY":"254.5075"},{"REF_FRAME":"TEME","ELEMENT_SET_NO":"999","MEAN_MOTION_DDOT":"0.0000000000000","CENTER_NAME":"EARTH","OBJECT_TYPE":"PAYLOAD","MEAN_MOTION":"15.06395285","TLE_LINE2":"2 46769  53.0546   8.8462 0001274  91.7430 268.3705 15.06395285 53646","DECAY_DATE":null,"FILE":"3155694","REV_AT_EPOCH":"5364","COUNTRY_CODE":"US","INCLINATION":"53.0546","CLASSIFICATION_TYPE":"U","EPHEMERIS_TYPE":"0","ECCENTRICITY":"0.00012740","EPOCH":"2021-10-10T15:43:56.669664","RCS_SIZE":"LARGE","GP_ID":"186841241","LAUNCH_DATE":"2020-10-24","OBJECT_NAME":"STARLINK-1919","TIME_SYSTEM":"UTC","ARG_OF_PERICENTER":"91.7430","TLE_LINE1":"1 46769U 20074AG  21283.65551701 -.00000435  00000-0 -10322-4 0  9997","OBJECT_ID":"2020-074AG","MEAN_ANOMALY":"268.3705","PERIOD":"95.592","MEAN_ELEMENT_THEORY":"SGP4","BSTAR":"-0.00001032200000","APOAPSIS":"548.110","NORAD_CAT_ID":"46769","PERIAPSIS":"546.346","RA_OF_ASC_NODE":"8.8462","SITE":"AFETR","MEAN_MOTION_DOT":"-0.00000435","SEMIMAJOR_AXIS":"6925.363"},{"LAUNCH_DATE":"2020-10-24","GP_ID":"186839989","ARG_OF_PERICENTER":"101.3922","TIME_SYSTEM":"UTC","OBJECT_NAME":"STARLINK-1932","TLE_LINE1":"1 46770U 20074AH  21283.65826254  .00000895  00000-0  78943-4 0  9998","OBJECT_ID":"2020-074AH","PERIOD":"95.592","MEAN_ANOMALY":"258.7198","BSTAR":"0.00007894300000","APOAPSIS":"548.027","MEAN_ELEMENT_THEORY":"SGP4","NORAD_CAT_ID":"46770","PERIAPSIS":"546.415","SEMIMAJOR_AXIS":"6925.356","SITE":"AFETR","MEAN_MOTION_DOT":"0.00000895","RA_OF_ASC_NODE":"8.8197","MEAN_MOTION_DDOT":"0.0000000000000","ELEMENT_SET_NO":"999","REF_FRAME":"TEME","MEAN_MOTION":"15.06397534","CENTER_NAME":"EARTH","OBJECT_TYPE":"PAYLOAD","TLE_LINE2":"2 46770  53.0542   8.8197 0001164 101.3922 258.7198 15.06397534 53649","REV_AT_EPOCH":"5364","DECAY_DATE":null,"FILE":"3155694","COUNTRY_CODE":"US","INCLINATION":"53.0542","CLASSIFICATION_TYPE":"U","ECCENTRICITY":"0.00011640","EPHEMERIS_TYPE":"0","RCS_SIZE":"LARGE","EPOCH":"2021-10-10T15:47:53.883456"},{"PERIAPSIS":"546.369","SEMIMAJOR_AXIS":"6925.357","SITE":"AFETR","MEAN_MOTION_DOT":"0.00001170","RA_OF_ASC_NODE":"8.5915","APOAPSIS":"548.074","BSTAR":"0.00009740700000","MEAN_ELEMENT_THEORY":"SGP4","NORAD_CAT_ID":"46772","TLE_LINE1":"1 46772U 20074AK  21283.71081305  .00001170  00000-0  97407-4 0  9990","OBJECT_ID":"2020-074AK","PERIOD":"95.592","MEAN_ANOMALY":"273.9551","LAUNCH_DATE":"2020-10-24","GP_ID":"186840239","ARG_OF_PERICENTER":"86.1579","TIME_SYSTEM":"UTC","OBJECT_NAME":"STARLINK-1936","ECCENTRICITY":"0.00012310","EPHEMERIS_TYPE":"0","RCS_SIZE":"LARGE","EPOCH":"2021-10-10T17:03:34.247520","COUNTRY_CODE":"US","INCLINATION":"53.0555","CLASSIFICATION_TYPE":"U","TLE_LINE2":"2 46772  53.0555   8.5915 0001231  86.1579 273.9551 15.06397300 53657","REV_AT_EPOCH":"5365","FILE":"3155694","DECAY_DATE":null,"MEAN_MOTION_DDOT":"0.0000000000000","ELEMENT_SET_NO":"999","REF_FRAME":"TEME","MEAN_MOTION":"15.06397300","OBJECT_TYPE":"PAYLOAD","CENTER_NAME":"EARTH"},{"PERIAPSIS":"541.778","MEAN_MOTION_DOT":"0.00007551","SITE":"AFETR","SEMIMAJOR_AXIS":"6920.939","RA_OF_ASC_NODE":"7.6503","APOAPSIS":"543.830","BSTAR":"0.00050541000000","MEAN_ELEMENT_THEORY":"SGP4","NORAD_CAT_ID":"46774","OBJECT_ID":"2020-074AM","TLE_LINE1":"1 46774U 20074AM  21283.70990723  .00007551  00000-0  50541-3 0  9990","PERIOD":"95.501","MEAN_ANOMALY":"262.6052","LAUNCH_DATE":"2020-10-24","GP_ID":"186840491","TIME_SYSTEM":"UTC","ARG_OF_PERICENTER":"97.5106","OBJECT_NAME":"STARLINK-1939","EPHEMERIS_TYPE":"0","ECCENTRICITY":"0.00014830","EPOCH":"2021-10-10T17:02:15.984672","RCS_SIZE":"LARGE","COUNTRY_CODE":"US","INCLINATION":"53.0547","CLASSIFICATION_TYPE":"U","TLE_LINE2":"2 46774  53.0547   7.6503 0001483  97.5106 262.6052 15.07839889 53671","REV_AT_EPOCH":"5367","FILE":"3155694","DECAY_DATE":null,"ELEMENT_SET_NO":"999","MEAN_MOTION_DDOT":"0.0000000000000","REF_FRAME":"TEME","MEAN_MOTION":"15.07839889","OBJECT_TYPE":"PAYLOAD","CENTER_NAME":"EARTH"},{"MEAN_ANOMALY":"269.9210","PERIOD":"95.593","TLE_LINE1":"1 46775U 20074AN  21283.61499165 -.00000921  00000-0 -43005-4 0  9999","OBJECT_ID":"2020-074AN","TIME_SYSTEM":"UTC","ARG_OF_PERICENTER":"90.1902","OBJECT_NAME":"STARLINK-1945","LAUNCH_DATE":"2020-10-24","GP_ID":"186840742","SITE":"AFETR","MEAN_MOTION_DOT":"-0.00000921","SEMIMAJOR_AXIS":"6925.408","RA_OF_ASC_NODE":"9.0169","PERIAPSIS":"546.525","NORAD_CAT_ID":"46775","APOAPSIS":"548.021","BSTAR":"-0.00004300500000","MEAN_ELEMENT_THEORY":"SGP4","REV_AT_EPOCH":"5363","DECAY_DATE":null,"FILE":"3155694","TLE_LINE2":"2 46775  53.0562   9.0169 0001080  90.1902 269.9210 15.06380461 53637","MEAN_MOTION":"15.06380461","CENTER_NAME":"EARTH","OBJECT_TYPE":"PAYLOAD","ELEMENT_SET_NO":"999","MEAN_MOTION_DDOT":"0.0000000000000","REF_FRAME":"TEME","EPOCH":"2021-10-10T14:45:35.278560","RCS_SIZE":"LARGE","ECCENTRICITY":"0.00010800","EPHEMERIS_TYPE":"0","CLASSIFICATION_TYPE":"U","INCLINATION":"53.0562","COUNTRY_CODE":"US"},{"GP_ID":"186839490","LAUNCH_DATE":"2020-10-24","OBJECT_NAME":"STARLINK-1946","ARG_OF_PERICENTER":"97.4944","TIME_SYSTEM":"UTC","OBJECT_ID":"2020-074AP","TLE_LINE1":"1 46776U 20074AP  21283.72555128  .00001040  00000-0  88718-4 0  9995","PERIOD":"95.592","MEAN_ANOMALY":"262.6177","MEAN_ELEMENT_THEORY":"SGP4","BSTAR":"0.00008871800000","APOAPSIS":"548.003","NORAD_CAT_ID":"46776","PERIAPSIS":"546.404","RA_OF_ASC_NODE":"8.5170","MEAN_MOTION_DOT":"0.00001040","SITE":"AFETR","SEMIMAJOR_AXIS":"6925.339","REF_FRAME":"TEME","MEAN_MOTION_DDOT":"0.0000000000000","ELEMENT_SET_NO":"999","OBJECT_TYPE":"PAYLOAD","CENTER_NAME":"EARTH","MEAN_MOTION":"15.06403266","TLE_LINE2":"2 46776  53.0548   8.5170 0001155  97.4944 262.6177 15.06403266 53650","DECAY_DATE":null,"FILE":"3155694","REV_AT_EPOCH":"5365","COUNTRY_CODE":"US","CLASSIFICATION_TYPE":"U","INCLINATION":"53.0548","ECCENTRICITY":"0.00011550","EPHEMERIS_TYPE":"0","RCS_SIZE":"LARGE","EPOCH":"2021-10-10T17:24:47.630592"},{"MEAN_ELEMENT_THEORY":"SGP4","APOAPSIS":"548.135","BSTAR":"0.00003998100000","NORAD_CAT_ID":"46779","PERIAPSIS":"546.376","RA_OF_ASC_NODE":"342.8489","SITE":"AFETR","SEMIMAJOR_AXIS":"6925.391","MEAN_MOTION_DOT":"0.00000314","GP_ID":"186839740","LAUNCH_DATE":"2020-10-24","OBJECT_NAME":"STARLINK-1798","ARG_OF_PERICENTER":"87.0287","TIME_SYSTEM":"UTC","TLE_LINE1":"1 46779U 20074AS  21283.87346331  .00000314  00000-0  39981-4 0  9999","OBJECT_ID":"2020-074AS","MEAN_ANOMALY":"273.0847","PERIOD":"95.593","COUNTRY_CODE":"US","INCLINATION":"53.0558","CLASSIFICATION_TYPE":"U","ECCENTRICITY":"0.00012700","EPHEMERIS_TYPE":"0","RCS_SIZE":"LARGE","EPOCH":"2021-10-10T20:57:47.229984","REF_FRAME":"TEME","MEAN_MOTION_DDOT":"0.0000000000000","ELEMENT_SET_NO":"999","CENTER_NAME":"EARTH","OBJECT_TYPE":"PAYLOAD","MEAN_MOTION":"15.06386312","TLE_LINE2":"2 46779  53.0558 342.8489 0001270  87.0287 273.0847 15.06386312 54028","FILE":"3155694","DECAY_DATE":null,"REV_AT_EPOCH":"5402"},{"COUNTRY_CODE":"US","CLASSIFICATION_TYPE":"U","INCLINATION":"53.0557","EPHEMERIS_TYPE":"0","ECCENTRICITY":"0.00011210","RCS_SIZE":"LARGE","EPOCH":"2021-10-10T20:41:50.962560","MEAN_MOTION_DDOT":"0.0000000000000","ELEMENT_SET_NO":"999","REF_FRAME":"TEME","MEAN_MOTION":"15.06397773","CENTER_NAME":"EARTH","OBJECT_TYPE":"PAYLOAD","TLE_LINE2":"2 46780  53.0557 342.8997 0001121  87.2380 272.8737 15.06397773 54022","REV_AT_EPOCH":"5402","FILE":"3155694","DECAY_DATE":null,"BSTAR":"0.00005005400000","APOAPSIS":"547.997","MEAN_ELEMENT_THEORY":"SGP4","NORAD_CAT_ID":"46780","PERIAPSIS":"546.444","SITE":"AFETR","SEMIMAJOR_AXIS":"6925.355","MEAN_MOTION_DOT":"0.00000464","RA_OF_ASC_NODE":"342.8997","LAUNCH_DATE":"2020-10-24","GP_ID":"186840991","ARG_OF_PERICENTER":"87.2380","TIME_SYSTEM":"UTC","OBJECT_NAME":"STARLINK-1832","OBJECT_ID":"2020-074AT","TLE_LINE1":"1 46780U 20074AT  21283.86239540  .00000464  00000-0  50054-4 0  9993","MEAN_ANOMALY":"272.8737","PERIOD":"95.592"}];
